FLOCK 3P-37             
1 41953U 17008F   17345.92199704  .00002690  00000-0  11331-3 0  9998
2 41953  97.4758  46.9327 0006382 321.5791  38.4991 15.24215726 45606
